{"type": "FeatureCollection", "features": [ {"type": "Feature", "properties": {"norad_id": 31459, "name": "FENGYUN 1C DEB", "group": "fengyun-1c-debris", "lat": -70.31974097173602, "lon": 65.31101602605563, "alt_km": 816.0596186723615, "timestamp": "2025-12-27T07:26:25.504299+00:00", "meta": {"OBJECT_NAME": "FENGYUN 1C DEB", "OBJECT_ID": "1999-025BUX", "EPOCH": "2025-12-12T23:44:38.705568", "MEAN_MOTION": 14.44083824, "ECCENTRICITY": 0.00940456, "INCLINATION": 98.1765, "RA_OF_ASC_NODE": 255.2445, "ARG_OF_PERICENTER": 130.906, "MEAN_ANOMALY": 230.0325, "EPHEMERIS_TYPE": 0, "CLASSIFICATION_TYPE": "U", "NORAD_CAT_ID": 31459, "ELEMENT_SET_NO": 999, "REV_AT_EPOCH": 64561, "BSTAR": 0.0020176648, "MEAN_MOTION_DOT": 7.253e-05, "MEAN_MOTION_DDOT": 0}, "tle": {"line1": "1 31459U 99025BUX 25346.98933687  .00007253  00000+0  20177-2 0  9995", "line2": "2 31459  98.1765 255.2445 0094045 130.9060 230.0325 14.44083824645613"}}, "geometry": {"type": "Point", "coordinates": [65.31101602605563, -70.31974097173602]}}, {"type": "Feature", "properties": {"norad_id": 31462, "name": "FENGYUN 1C DEB", "group": "fengyun-1c-debris", "lat": -59.66396819406295, "lon": -175.86512272326794, "alt_km": 851.1719877889072, "timestamp": "2025-12-27T07:26:25.504309+00:00", "meta": {"OBJECT_NAME": "FENGYUN 1C DEB", "OBJECT_ID": "1999-025BVA", "EPOCH": "2025-12-22T13:11:27.568896", "MEAN_MOTION": 14.13022344, "ECCENTRICITY": 0.00325464, "INCLINATION": 98.689, "RA_OF_ASC_NODE": 14.663, "ARG_OF_PERICENTER": 176.2989, "MEAN_ANOMALY": 342.0684, "EPHEMERIS_TYPE": 0, "CLASSIFICATION_TYPE": "U", "NORAD_CAT_ID": 31462, "ELEMENT_SET_NO": 999, "REV_AT_EPOCH": 95994, "BSTAR": 0.00028157306, "MEAN_MOTION_DOT": 4.85e-06, "MEAN_MOTION_DDOT": 0}, "tle": {"line1": "1 31462U 99025BVA 25356.54962464  .00000485  00000+0  28157-3 0  9994", "line2": "2 31462  98.6890  14.6630 0032546 176.2989 342.0684 14.13022344959947"}}, "geometry": {"type": "Point", "coordinates": [-175.86512272326794, -59.66396819406295]}}, {"type": "Feature", "properties": {"norad_id": 31463, "name": "FENGYUN 1C DEB", "group": "fengyun-1c-debris", "lat": 21.61485038590665, "lon": -19.82881000029371, "alt_km": 629.2867769194581, "timestamp": "2025-12-27T07:26:25.504319+00:00", "meta": {"OBJECT_NAME": "FENGYUN 1C DEB", "OBJECT_ID": "1999-025BVB", "EPOCH": "2025-12-23T04:45:01.858752", "MEAN_MOTION": 14.36987164, "ECCENTRICITY": 0.02131915, "INCLINATION": 99.0817, "RA_OF_ASC_NODE": 339.4644, "ARG_OF_PERICENTER": 9.2607, "MEAN_ANOMALY": 351.2414, "EPHEMERIS_TYPE": 0, "CLASSIFICATION_TYPE": "U", "NORAD_CAT_ID": 31463, "ELEMENT_SET_NO": 999, "REV_AT_EPOCH": 64870, "BSTAR": 0.00056955164, "MEAN_MOTION_DOT": 2.135e-05, "MEAN_MOTION_DDOT": 0}, "tle": {"line1": "1 31463U 99025BVB 25357.19793818  .00002135  00000+0  56955-3 0  9993", "line2": "2 31463  99.0817 339.4644 0213191   9.2607 351.2414 14.36987164648701"}}, "geometry": {"type": "Point", "coordinates": [-19.82881000029371, 21.61485038590665]}}, {"type": "Feature", "properties": {"norad_id": 31464, "name": "FENGYUN 1C DEB", "group": "fengyun-1c-debris", "lat": 23.882203961180394, "lon": -128.24686289842296, "alt_km": 827.7402936156623, "timestamp": "2025-12-27T07:26:25.504330+00:00", "meta": {"OBJECT_NAME": "FENGYUN 1C DEB", "OBJECT_ID": "1999-025BVC", "EPOCH": "2025-12-24T23:10:31.080000", "MEAN_MOTION": 14.12490109, "ECCENTRICITY": 0.00436815, "INCLINATION": 98.7932, "RA_OF_ASC_NODE": 45.523, "ARG_OF_PERICENTER": 207.1359, "MEAN_ANOMALY": 274.483, "EPHEMERIS_TYPE": 0, "CLASSIFICATION_TYPE": "U", "NORAD_CAT_ID": 31464, "ELEMENT_SET_NO": 999, "REV_AT_EPOCH": 94852, "BSTAR": 0.00029095941, "MEAN_MOTION_DOT": 4.99e-06, "MEAN_MOTION_DDOT": 0}, "tle": {"line1": "1 31464U 99025BVC 25358.96563750  .00000499  00000+0  29096-3 0  9997", "line2": "2 31464  98.7932  45.5230 0043681 207.1359 274.4830 14.12490109948523"}}, "geometry": {"type": "Point", "coordinates": [-128.24686289842296, 23.882203961180394]}}, {"type": "Feature", "properties": {"norad_id": 31466, "name": "FENGYUN 1C DEB", "group": "fengyun-1c-debris", "lat": 9.212076643492145, "lon": -69.84675561852733, "alt_km": 871.0841182560716, "timestamp": "2025-12-27T07:26:25.504340+00:00", "meta": {"OBJECT_NAME": "FENGYUN 1C DEB", "OBJECT_ID": "1999-025BVE", "EPOCH": "2025-12-26T00:55:31.560672", "MEAN_MOTION": 14.18538299, "ECCENTRICITY": 0.02987418, "INCLINATION": 99.0886, "RA_OF_ASC_NODE": 290.3365, "ARG_OF_PERICENTER": 270.9055, "MEAN_ANOMALY": 85.7907, "EPHEMERIS_TYPE": 0, "CLASSIFICATION_TYPE": "U", "NORAD_CAT_ID": 31466, "ELEMENT_SET_NO": 999, "REV_AT_EPOCH": 96517, "BSTAR": 0.00018244871, "MEAN_MOTION_DOT": 5.29e-06, "MEAN_MOTION_DDOT": 0}, "tle": {"line1": "1 31466U 99025BVE 25360.03855973  .00000529  00000+0  18245-3 0  9999", "line2": "2 31466  99.0886 290.3365 0298741 270.9055  85.7907 14.18538299965173"}}, "geometry": {"type": "Point", "coordinates": [-69.84675561852733, 9.212076643492145]}}, {"type": "Feature", "properties": {"norad_id": 31468, "name": "FENGYUN 1C DEB", "group": "fengyun-1c-debris", "lat": 62.0272215120623, "lon": -167.41053131669238, "alt_km": 612.2719568557077, "timestamp": "2025-12-27T07:26:25.504350+00:00", "meta": {"OBJECT_NAME": "FENGYUN 1C DEB", "OBJECT_ID": "1999-025BVG", "EPOCH": "2025-12-26T19:17:20.050656", "MEAN_MOTION": 14.46627231, "ECCENTRICITY": 0.01671038, "INCLINATION": 98.1687, "RA_OF_ASC_NODE": 356.4097, "ARG_OF_PERICENTER": 123.9755, "MEAN_ANOMALY": 237.7444, "EPHEMERIS_TYPE": 0, "CLASSIFICATION_TYPE": "U", "NORAD_CAT_ID": 31468, "ELEMENT_SET_NO": 999, "REV_AT_EPOCH": 67575, "BSTAR": 0.0003535945, "MEAN_MOTION_DOT": 1.471e-05, "MEAN_MOTION_DDOT": 0}, "tle": {"line1": "1 31468U 99025BVG 25360.80370429  .00001471  00000+0  35359-3 0  9996", "line2": "2 31468  98.1687 356.4097 0167103 123.9755 237.7444 14.46627231675754"}}, "geometry": {"type": "Point", "coordinates": [-167.41053131669238, 62.0272215120623]}}, {"type": "Feature", "properties": {"norad_id": 31473, "name": "FENGYUN 1C DEB", "group": "fengyun-1c-debris", "lat": 69.9506811910892, "lon": -121.57037809845042, "alt_km": 818.7018795377035, "timestamp": "2025-12-27T07:26:25.504360+00:00", "meta": {"OBJECT_NAME": "FENGYUN 1C DEB", "OBJECT_ID": "1999-025BVM", "EPOCH": "2025-12-25T01:18:58.811904", "MEAN_MOTION": 14.2987005, "ECCENTRICITY": 0.00644258, "INCLINATION": 98.5447, "RA_OF_ASC_NODE": 31.8881, "ARG_OF_PERICENTER": 338.2554, "MEAN_ANOMALY": 47.4091, "EPHEMERIS_TYPE": 0, "CLASSIFICATION_TYPE": "U", "NORAD_CAT_ID": 31473, "ELEMENT_SET_NO": 999, "REV_AT_EPOCH": 69697, "BSTAR": 0.0014425568, "MEAN_MOTION_DOT": 3.754e-05, "MEAN_MOTION_DDOT": 0}, "tle": {"line1": "1 31473U 99025BVM 25359.05484736  .00003754  00000+0  14426-2 0  9991", "line2": "2 31473  98.5447  31.8881 0064425 338.2554  47.4091 14.29870050696975"}}, "geometry": {"type": "Point", "coordinates": [-121.57037809845042, 69.9506811910892]}}, {"type": "Feature", "properties": {"norad_id": 31474, "name": "FENGYUN 1C DEB", "group": "fengyun-1c-debris", "lat": 71.85545627940202, "lon": -103.1422790759551, "alt_km": 824.434191610494, "timestamp": "2025-12-27T07:26:25.504370+00:00", "meta": {"OBJECT_NAME": "FENGYUN 1C DEB", "OBJECT_ID": "1999-025BVN", "EPOCH": "2025-12-26T20:43:29.823168", "MEAN_MOTION": 14.1065888, "ECCENTRICITY": 0.00720524, "INCLINATION": 99.1442, "RA_OF_ASC_NODE": 46.965, "ARG_OF_PERICENTER": 167.7728, "MEAN_ANOMALY": 192.5211, "EPHEMERIS_TYPE": 0, "CLASSIFICATION_TYPE": "U", "NORAD_CAT_ID": 31474, "ELEMENT_SET_NO": 999, "REV_AT_EPOCH": 95169, "BSTAR": 0.0015037629, "MEAN_MOTION_DOT": 2.706e-05, "MEAN_MOTION_DDOT": 0}, "tle": {"line1": "1 31474U 99025BVN 25360.86353962  .00002706  00000+0  15038-2 0  9995", "line2": "2 31474  99.1442  46.9650 0072052 167.7728 192.5211 14.10658880951696"}}, "geometry": {"type": "Point", "coordinates": [-103.1422790759551, 71.85545627940202]}}, {"type": "Feature", "properties": {"norad_id": 31475, "name": "FENGYUN 1C DEB", "group": "fengyun-1c-debris", "lat": 65.9731622106179, "lon": -130.06810252021108, "alt_km": 606.743580883367, "timestamp": "2025-12-27T07:26:25.504380+00:00", "meta": {"OBJECT_NAME": "FENGYUN 1C DEB", "OBJECT_ID": "1999-025BVP", "EPOCH": "2025-12-23T22:59:46.307040", "MEAN_MOTION": 14.38250709, "ECCENTRICITY": 0.0211772, "INCLINATION": 98.9391, "RA_OF_ASC_NODE": 247.1174, "ARG_OF_PERICENTER": 74.1506, "MEAN_ANOMALY": 288.2912, "EPHEMERIS_TYPE": 0, "CLASSIFICATION_TYPE": "U", "NORAD_CAT_ID": 31475, "ELEMENT_SET_NO": 999, "REV_AT_EPOCH": 96240, "BSTAR": 0.00069378, "MEAN_MOTION_DOT": 2.684e-05, "MEAN_MOTION_DDOT": 0}, "tle": {"line1": "1 31475U 99025BVP 25357.95817485  .00002684  00000+0  69378-3 0  9999", "line2": "2 31475  98.9391 247.1174 0211772  74.1506 288.2912 14.38250709962402"}}, "geometry": {"type": "Point", "coordinates": [-130.06810252021108, 65.9731622106179]}}, {"type": "Feature", "properties": {"norad_id": 31476, "name": "FENGYUN 1C DEB", "group": "fengyun-1c-debris", "lat": 76.63059258191912, "lon": -63.83459866802241, "alt_km": 778.1619676815089, "timestamp": "2025-12-27T07:26:25.504390+00:00", "meta": {"OBJECT_NAME": "FENGYUN 1C DEB", "OBJECT_ID": "1999-025BVQ", "EPOCH": "2025-12-26T03:57:24.450912", "MEAN_MOTION": 14.22189135, "ECCENTRICITY": 0.00528193, "INCLINATION": 98.8965, "RA_OF_ASC_NODE": 73.7838, "ARG_OF_PERICENTER": 134.655, "MEAN_ANOMALY": 225.8951, "EPHEMERIS_TYPE": 0, "CLASSIFICATION_TYPE": "U", "NORAD_CAT_ID": 31476, "ELEMENT_SET_NO": 999, "REV_AT_EPOCH": 95890, "BSTAR": 0.0014752475, "MEAN_MOTION_DOT": 3.274e-05, "MEAN_MOTION_DDOT": 0}, "tle": {"line1": "1 31476U 99025BVQ 25360.16486633  .00003274  00000+0  14752-2 0  9995", "line2": "2 31476  98.8965  73.7838 0052819 134.6550 225.8951 14.22189135958902"}}, "geometry": {"type": "Point", "coordinates": [-63.83459866802241, 76.63059258191912]}}]}